*******************************************************************************
Ephemeris / WWW_USER Mon Mar 24 07:56:37 2025 Pasadena, USA      / Horizons    
*******************************************************************************
Target body name: (2018 TZ5)                      {source: JPL#13}
Center body name: Earth (399)                     {source: DE441}
Center-site name: Mauna Kea
*******************************************************************************
Start time      : A.D. 2019-Jan-22 04:17:00.0000 UT      
Stop  time      : A.D. 2019-Jan-22 16:49:00.0000 UT      
Step-size       : 1 minutes
*******************************************************************************
Target pole/equ : undefined
Target radii    : undefined                                                    
Center geodetic : 204.5278, 19.8260847, 4.21024   {E-lon(deg),Lat(deg),Alt(km)}
Center cylindric: 204.5278, 6006.35451, 2151.0229 {E-lon(deg),Dxy(km),Dz(km)}
Center pole/equ : ITRF93                          {East-longitude positive}
Center radii    : 6378.137, 6378.137, 6356.752 km {Equator_a, b, pole_c}       
Target primary  : Sun
Vis. interferer : MOON (R_eq= 1737.400) km        {source: DE441}
Rel. light bend : Sun                             {source: DE441}
Rel. lght bnd GM: 1.3271E+11 km^3/s^2                                          
Small-body perts: Yes                             {source: SB441-N16}
Atmos refraction: NO (AIRLESS)
RA format       : HMS
Time format     : CAL 
Calendar mode   : Mixed Julian/Gregorian
RTS-only print  : NO       
EOP file        : eop.250321.p250617                                           
EOP coverage    : DATA-BASED 1962-JAN-20 TO 2025-MAR-21. PREDICTS-> 2025-JUN-16
Units conversion: 1 au= 149597870.700 km, c= 299792.458 km/s, 1 day= 86400.0 s 
Table cut-offs 1: Elevation (-90.0deg=NO ),Airmass (>38.000=NO), Daylight (YES)
Table cut-offs 2: Solar elongation (  0.0,180.0=NO ),Local Hour Angle( 0.0=NO )
Table cut-offs 3: RA/DEC angular rate (     0.0=NO )                           
*******************************************************************************
Initial IAU76/J2000 heliocentric ecliptic osculating elements (au, days, deg.):
  EPOCH=  2458421.5 ! 2018-Oct-30.00 (TDB)         Residual RMS= .3052         
   EC= .5505022016549632   QR= .8932716909804733   TP= 2458367.6074299323      
   OM= 132.9772150011661   W=  197.0626448515302   IN= 1.165364587967566       
  Equivalent ICRF heliocentric cartesian coordinates (au, au/d):
   X= 9.139681807821705E-01  Y= 6.232256283970929E-01  Z= 2.452583568287751E-01
  VX=-4.619682259947144E-03 VY= 1.729028462648113E-02 VZ= 7.287606215643615E-03
Asteroid physical parameters (km, seconds, rotational period in hours):        
   GM= n.a.                RAD= n.a.               ROTPER= n.a.                
   H= 24.4                 G= .150                 B-V= n.a.                   
                           ALBEDO= n.a.            STYP= n.a.                  
*******************************************************************************
 Date__(UT)__HR:MN     R.A._________(ICRF)_________DEC
******************************************************
$$SOE
 2019-Jan-22 12:29  m  03 26 57.908031 +17 25 41.27840
 2019-Jan-22 12:30  m  03 26 57.964177 +17 25 41.52594
 2019-Jan-22 12:31  m  03 26 58.020332 +17 25 41.77348
 2019-Jan-22 12:32  m  03 26 58.076497 +17 25 42.02103
 2019-Jan-22 12:33  m  03 26 58.132671 +17 25 42.26859
 2019-Jan-22 12:34  m  03 26 58.188854 +17 25 42.51616
 2019-Jan-22 12:35  m  03 26 58.245047 +17 25 42.76373
 2019-Jan-22 12:36  m  03 26 58.301250 +17 25 43.01131
 2019-Jan-22 12:37  m  03 26 58.357462 +17 25 43.25890
 2019-Jan-22 12:38  m  03 26 58.413683 +17 25 43.50650
 2019-Jan-22 12:39  m  03 26 58.469914 +17 25 43.75411
 2019-Jan-22 12:40  m  03 26 58.526154 +17 25 44.00173
 2019-Jan-22 12:41  m  03 26 58.582404 +17 25 44.24936
 2019-Jan-22 12:42  m  03 26 58.638662 +17 25 44.49699
 2019-Jan-22 12:43  m  03 26 58.694931 +17 25 44.74464
 2019-Jan-22 12:44  m  03 26 58.751208 +17 25 44.99229
 2019-Jan-22 12:45  m  03 26 58.807495 +17 25 45.23996
 2019-Jan-22 12:46  m  03 26 58.863792 +17 25 45.48764
 2019-Jan-22 12:47  m  03 26 58.920097 +17 25 45.73532
 2019-Jan-22 12:48  m  03 26 58.976412 +17 25 45.98302
 2019-Jan-22 12:49  m  03 26 59.032737 +17 25 46.23072
 2019-Jan-22 12:50  m  03 26 59.089070 +17 25 46.47844
 2019-Jan-22 12:51  m  03 26 59.145413 +17 25 46.72617
 2019-Jan-22 12:52  m  03 26 59.201765 +17 25 46.97391
 2019-Jan-22 12:53  m  03 26 59.258127 +17 25 47.22166
 2019-Jan-22 12:54  m  03 26 59.314497 +17 25 47.46942
 2019-Jan-22 12:55  m  03 26 59.370877 +17 25 47.71719
 2019-Jan-22 12:56  m  03 26 59.427266 +17 25 47.96498
 2019-Jan-22 12:57  m  03 26 59.483665 +17 25 48.21278
 2019-Jan-22 12:58  m  03 26 59.540072 +17 25 48.46058
 2019-Jan-22 12:59  m  03 26 59.596489 +17 25 48.70841
 2019-Jan-22 13:00  m  03 26 59.652915 +17 25 48.95624
 2019-Jan-22 13:01  m  03 26 59.709350 +17 25 49.20409
 2019-Jan-22 13:02  m  03 26 59.765794 +17 25 49.45194
 2019-Jan-22 13:03  m  03 26 59.822247 +17 25 49.69982
 2019-Jan-22 13:04  m  03 26 59.878709 +17 25 49.94770
 2019-Jan-22 13:05  m  03 26 59.935181 +17 25 50.19560
 2019-Jan-22 13:06  m  03 26 59.991661 +17 25 50.44351
 2019-Jan-22 13:07  m  03 27 00.048151 +17 25 50.69144
 2019-Jan-22 13:08  m  03 27 00.104650 +17 25 50.93938
 2019-Jan-22 13:09  m  03 27 00.161157 +17 25 51.18733
 2019-Jan-22 13:10  m  03 27 00.217674 +17 25 51.43529
 2019-Jan-22 13:11  m  03 27 00.274200 +17 25 51.68328
 2019-Jan-22 13:12  m  03 27 00.330735 +17 25 51.93127
 2019-Jan-22 13:13  m  03 27 00.387278 +17 25 52.17928
 2019-Jan-22 13:14  m  03 27 00.443831 +17 25 52.42731
 2019-Jan-22 13:15  m  03 27 00.500393 +17 25 52.67535
 2019-Jan-22 13:16  m  03 27 00.556963 +17 25 52.92340
 2019-Jan-22 13:17  m  03 27 00.613543 +17 25 53.17147
 2019-Jan-22 13:18  m  03 27 00.670131 +17 25 53.41955
 2019-Jan-22 13:19  m  03 27 00.726728 +17 25 53.66766
 2019-Jan-22 13:20  m  03 27 00.783334 +17 25 53.91577
 2019-Jan-22 13:21  m  03 27 00.839949 +17 25 54.16390
 2019-Jan-22 13:22  m  03 27 00.896573 +17 25 54.41205
 2019-Jan-22 13:23  m  03 27 00.953206 +17 25 54.66022
 2019-Jan-22 13:24  m  03 27 01.009847 +17 25 54.90840
 2019-Jan-22 13:25  m  03 27 01.066497 +17 25 55.15659
 2019-Jan-22 13:26  m  03 27 01.123156 +17 25 55.40481
 2019-Jan-22 13:27  m  03 27 01.179824 +17 25 55.65304
 2019-Jan-22 13:28  m  03 27 01.236500 +17 25 55.90129
 2019-Jan-22 13:29  m  03 27 01.293185 +17 25 56.14955
 2019-Jan-22 13:30  m  03 27 01.349879 +17 25 56.39783
 2019-Jan-22 13:31  m  03 27 01.406581 +17 25 56.64613
 2019-Jan-22 13:32  m  03 27 01.463293 +17 25 56.89445
 2019-Jan-22 13:33  m  03 27 01.520012 +17 25 57.14278
 2019-Jan-22 13:34  m  03 27 01.576741 +17 25 57.39114
 2019-Jan-22 13:35  m  03 27 01.633477 +17 25 57.63951
 2019-Jan-22 13:36  m  03 27 01.690223 +17 25 57.88789
 2019-Jan-22 13:37  m  03 27 01.746977 +17 25 58.13630
 2019-Jan-22 13:38  m  03 27 01.803740 +17 25 58.38473
 2019-Jan-22 13:39  m  03 27 01.860511 +17 25 58.63317
 2019-Jan-22 13:40  m  03 27 01.917290 +17 25 58.88163
 2019-Jan-22 13:41  m  03 27 01.974078 +17 25 59.13012
 2019-Jan-22 13:42  m  03 27 02.030875 +17 25 59.37862
 2019-Jan-22 13:43  m  03 27 02.087680 +17 25 59.62714
 2019-Jan-22 13:44  m  03 27 02.144493 +17 25 59.87568
 2019-Jan-22 13:45  m  03 27 02.201315 +17 26 00.12424
 2019-Jan-22 13:46  m  03 27 02.258145 +17 26 00.37282
 2019-Jan-22 13:47  m  03 27 02.314983 +17 26 00.62142
 2019-Jan-22 13:48  m  03 27 02.371830 +17 26 00.87004
 2019-Jan-22 13:49  m  03 27 02.428685 +17 26 01.11868
 2019-Jan-22 13:50  m  03 27 02.485549 +17 26 01.36734
 2019-Jan-22 13:51  m  03 27 02.542420 +17 26 01.61602
 2019-Jan-22 13:52  m  03 27 02.599300 +17 26 01.86472
 2019-Jan-22 13:53  m  03 27 02.656188 +17 26 02.11344
 2019-Jan-22 13:54  m  03 27 02.713084 +17 26 02.36218
 2019-Jan-22 13:55  m  03 27 02.769989 +17 26 02.61095
 2019-Jan-22 13:56  m  03 27 02.826901 +17 26 02.85973
 2019-Jan-22 13:57  m  03 27 02.883822 +17 26 03.10854
 2019-Jan-22 13:58  m  03 27 02.940751 +17 26 03.35736
 2019-Jan-22 13:59  m  03 27 02.997688 +17 26 03.60621
 2019-Jan-22 14:00  m  03 27 03.054633 +17 26 03.85509
 2019-Jan-22 14:01  m  03 27 03.111586 +17 26 04.10398
 2019-Jan-22 14:02  m  03 27 03.168547 +17 26 04.35289
 2019-Jan-22 14:03  m  03 27 03.225516 +17 26 04.60183
 2019-Jan-22 14:04  m  03 27 03.282493 +17 26 04.85079
 2019-Jan-22 14:05  m  03 27 03.339478 +17 26 05.09978
 2019-Jan-22 14:06  m  03 27 03.396471 +17 26 05.34878
 2019-Jan-22 14:07  m  03 27 03.453472 +17 26 05.59781
 2019-Jan-22 14:08  m  03 27 03.510480 +17 26 05.84686
 2019-Jan-22 14:09  m  03 27 03.567497 +17 26 06.09594
 2019-Jan-22 14:10  m  03 27 03.624521 +17 26 06.34503
 2019-Jan-22 14:11  m  03 27 03.681553 +17 26 06.59415
 2019-Jan-22 14:12  m  03 27 03.738593 +17 26 06.84330
 2019-Jan-22 14:13  m  03 27 03.795640 +17 26 07.09247
 2019-Jan-22 14:14  m  03 27 03.852696 +17 26 07.34166
 2019-Jan-22 14:15  m  03 27 03.909759 +17 26 07.59088
 2019-Jan-22 14:16  m  03 27 03.966830 +17 26 07.84012
 2019-Jan-22 14:17  m  03 27 04.023908 +17 26 08.08938
 2019-Jan-22 14:18  m  03 27 04.080994 +17 26 08.33867
 2019-Jan-22 14:19  m  03 27 04.138087 +17 26 08.58798
 2019-Jan-22 14:20  m  03 27 04.195188 +17 26 08.83732
 2019-Jan-22 14:21  m  03 27 04.252297 +17 26 09.08668
 2019-Jan-22 14:22  m  03 27 04.309413 +17 26 09.33607
 2019-Jan-22 14:23  m  03 27 04.366537 +17 26 09.58548
 2019-Jan-22 14:24  m  03 27 04.423668 +17 26 09.83492
 2019-Jan-22 14:25  m  03 27 04.480807 +17 26 10.08439
 2019-Jan-22 14:26  m  03 27 04.537953 +17 26 10.33387
 2019-Jan-22 14:27  m  03 27 04.595106 +17 26 10.58339
 2019-Jan-22 14:28  m  03 27 04.652267 +17 26 10.83293
 2019-Jan-22 14:29  m  03 27 04.709435 +17 26 11.08249
 2019-Jan-22 14:30  m  03 27 04.766610 +17 26 11.33209
 2019-Jan-22 14:31  m  03 27 04.823793 +17 26 11.58170
